ONEWEB-0068             
1 45446U 20020Y   21346.51741120 -.00000047  00000+0 -16720-3 0  9995
2 45446  87.8884 348.6808 0001935  74.9657 285.1685 13.11418740 86640
ONEWEB-0046             
1 45447U 20020Z   21346.51403441 -.00000256  00000+0 -75894-3 0  9996
2 45447  87.8885 348.6886 0001835  92.3747 267.7592 13.11418636 86659
ONEWEB-0063             
1 45448U 20020AA  21346.46691950  .00000528  00000+0  14532-2 0  9996
2 45448  87.8875 348.6942 0001835  99.1195 261.0140 13.11413530 86737
ONEWEB-0019             
1 45449U 20020AB  21346.51853160 -.00000001  00000+0 -38222-4 0  9998
2 45449  87.8888 348.6660 0001649  90.1098 270.0218 13.11419081 86581
ONEWEB-0094             
1 45450U 20020AC  21346.50329967  .00000097  00000+0  21723-3 0  9992
2 45450  87.9075 333.4291 0001686  80.6731 279.4591 13.17651189 89328
ONEWEB-0087             
1 45451U 20020AD  21346.47589413  .00000321  00000+0  87046-3 0  9993
2 45451  87.8886 348.7060 0002228  83.2352 276.9030 13.11415524 86627
ONEWEB-0082             
1 45452U 20020AE  21346.47813256  .00000216  00000+0  57358-3 0  9995
2 45452  87.8880 348.6539 0002120  73.7112 286.4249 13.11416243 86718
ONEWEB-0050             
1 45453U 20020AF  21346.91665321  .00000321  00000+0  26678-4 0  9992
2 45453  87.5408 299.5499 0026506 164.2400 195.9662 14.94749377 94408
ONEWEB-0034             
1 45454U 20020AG  21346.72497701 -.00000420  00000+0 -12216-2 0  9990
2 45454  87.8879 348.6280 0002006  86.1189 274.0168 13.11415669 86675
ONEWEB-0060             
1 45455U 20020AH  21346.50504110 -.00000497  00000+0 -14384-2 0  9992
2 45455  87.8885 348.6744 0001842  90.3173 269.8166 13.11415610 86592
ONEWEB-0086             
1 45456U 20020AJ  21346.52301025  .00000157  00000+0  40760-3 0  9994
2 45456  87.8884 348.6659 0001954  81.8420 278.2930 13.11417266 86650
ONEWEB-0088             
1 45457U 20020AK  21346.72720477 -.00000467  00000+0 -13540-2 0  9994
2 45457  87.8877 348.6465 0001999  90.4049 269.7308 13.11411986 86624
YAOGAN 30 R             
1 45460U 20021A   21346.67963027  .00000297  00000+0  32966-4 0  9997
2 45460  34.9965  58.9582 0004164 111.7993 248.3158 14.90058103 93790
YAOGAN 30 S             
1 45461U 20021B   21346.65740951  .00000298  00000+0  33004-4 0  9990
2 45461  34.9965  58.7545 0003660   6.3374 353.7376 14.90065388 93763
YAOGAN 30 T             
1 45462U 20021C   21346.63456426  .00000299  00000+0  33125-4 0  9995
2 45462  34.9975  56.7694 0001589 240.6493 119.4054 14.90088000 93789
AEHF-6 (USA 298)        
1 45465U 20022B   21346.80341163 -.00000295  00000+0  00000+0 0  9997
2 45465   6.3750 304.4471 0051566 352.6530 211.6198  1.00270829  6460
NOOR                    
1 45529U 20024A   21346.79396925  .00025461  00000+0  28793-3 0  9998
2 45529  59.8048 282.2278 0019333 116.3697 282.1948 15.62175271 92994
STARLINK-1329           
1 45531U 20025A   21346.81685655  .00000995  00000+0  85682-4 0  9992
2 45531  53.0532 215.2787 0002213  70.5293 289.5934 15.06401244 91191
STARLINK-1338           
1 45532U 20025B   21346.82791893  .00000563  00000+0  56754-4 0  9995
2 45532  53.0538 215.2423 0002585  72.5420 287.5851 15.06397546 91219
STARLINK-1339           
1 45533U 20025C   21346.33453985  .00008389  00000+0  34754-3 0  9998
2 45533  53.0437 213.4740 0001361 110.3231 249.7912 15.24740984 91779
STARLINK-1341           
1 45534U 20025D   21346.04282153 -.00001180  00000+0 -60327-4 0  9994
2 45534  53.0535 218.7693 0002242  74.6522 285.4715 15.06390777 91676
STARLINK-1350           
1 45535U 20025E   21346.79107115  .00000437  00000+0  48288-4 0  9995
2 45535  53.0541 215.4180 0002183  74.1838 285.9392 15.06395641 91208
STARLINK-1352           
1 45536U 20025F   21346.79475059  .00000157  00000+0  29445-4 0  9994
2 45536  53.0534 215.3927 0002250  74.2453 285.8784 15.06388819 91201
STARLINK-1353           
1 45537U 20025G   21346.55549644  .00003576  00000+0  20122-3 0  9991
2 45537  52.9997 188.6464 0003239 132.3101 227.8166 15.15748522 92128
STARLINK-1362           
1 45538U 20025H   21346.82056037  .00000462  00000+0  49936-4 0  9997
2 45538  53.0539 215.2738 0002135  78.1910 281.9318 15.06386670 91203
STARLINK-1367           
1 45539U 20025J   21346.50258147  .00012341  00000+0  79223-4 0  9990
2 45539  53.0513 108.9600 0002014  31.4016 328.7123 15.76746183 93232
STARLINK-1368           
1 45540U 20025K   21346.06861644 -.00001435  00000+0 -77419-4 0  9994
2 45540  53.0524 218.6535 0002277  78.3164 281.8081 15.06391896 91675
STARLINK-1369           
1 45541U 20025L   21346.80213074  .00000418  00000+0  46999-4 0  9992
2 45541  53.0529 215.3565 0002274  74.9333 285.1907 15.06391939 91194
STARLINK-1371           
1 45542U 20025M   21346.56989723  .00000593  00000+0  58752-4 0  9991
2 45542  53.0539 216.4026 0002419  80.3748 279.7514 15.06403689 91753
STARLINK-1372           
1 45543U 20025N   21346.60676133  .00000699  00000+0  65847-4 0  9995
2 45543  53.0525 216.2260 0002443  68.7727 291.3523 15.06396124 90856
STARLINK-1373           
1 45544U 20025P   21346.82424334  .00000556  00000+0  56261-4 0  9996
2 45544  53.0536 215.2652 0002178  79.1942 280.9292 15.06393529 91194
STARLINK-1374           
1 45545U 20025Q   21346.84267582  .00000468  00000+0  50326-4 0  9997
2 45545  53.0529 215.1829 0002410  71.2720 288.8530 15.06389231 91218
STARLINK-1375           
1 45546U 20025R   21346.85372690  .00000495  00000+0  52136-4 0  9997
2 45546  53.0528 215.1224 0002480  73.8080 286.3182 15.06395859 91209
STARLINK-1377           
1 45547U 20025S   21346.85004072 -.00000827  00000+0 -36599-4 0  9990
2 45547  53.0528 215.1359 0002532  70.4379 289.6883 15.06392278 91218
STARLINK-1378           
1 45548U 20025T   21346.34506156  .00000701  00000+0  65985-4 0  9995
2 45548  53.0541 217.4147 0002158  72.4210 287.7014 15.06396131 91716
STARLINK-1379           
1 45549U 20025U   21346.82944416  .01220357  00000+0  13547-1 0  9990
2 45549  53.0493 208.3525 0002197  30.5296 329.5843 15.59912171 91298
STARLINK-1390           
1 45550U 20025V   21346.42890220  .00000760  00000+0  69983-4 0  9992
2 45550  53.0540 217.0407 0002511  75.2353 284.8915 15.06393176 91720
STARLINK-1294           
1 45551U 20025W   21346.56438564  .00001381  00000+0  11164-3 0  9994
2 45551  53.0525 196.4315 0002372  80.6164 279.5093 15.06401681 92031
STARLINK-1322           
1 45552U 20025X   21346.51822655  .00004257  00000+0  10985-3 0  9993
2 45552  53.0555 181.4365 0001226 120.5762 239.5363 15.41411826 92238
STARLINK-1323           
1 45553U 20025Y   21346.84083838  .00000260  00000+0  36408-4 0  9991
2 45553  53.0542 195.1927 0002092  81.1854 278.9372 15.06389485 91475
STARLINK-1325           
1 45554U 20025Z   21346.83345279 -.00001301  00000+0 -68436-4 0  9996
2 45554  53.0531 195.2220 0002319  83.4626 276.6627 15.06396036 91462
STARLINK-1327           
1 45555U 20025AA  21346.86293839 -.00001219  00000+0 -62929-4 0  9993
2 45555  53.0523 195.0892 0002615  80.7812 279.3473 15.06390206 91476
STARLINK-1334           
1 45556U 20025AB  21346.77078798  .00000640  00000+0  61905-4 0  9997
2 45556  53.0537 195.5067 0002409  79.1920 280.9340 15.06404750 91464
STARLINK-1336           
1 45557U 20025AC  21346.04835068  .00000462  00000+0  49959-4 0  9996
2 45557  53.0524 198.7439 0002297  78.1104 282.0143 15.06394911 91952
STARLINK-1342           
1 45558U 20025AD  21346.61229483 -.00001408  00000+0 -75659-4 0  9997
2 45558  53.0537 196.2157 0002446  78.8060 281.3204 15.06390747 92034
STARLINK-1344           
1 45559U 20025AE  21346.84820774  .00000526  00000+0  54241-4 0  9995
2 45559  53.0529 195.1474 0002252  78.4535 281.6707 15.06388057 91473
STARLINK-1346           
1 45560U 20025AF  21346.56899894  .00000315  00000+0  40109-4 0  9999
2 45560  53.0537 186.4095 0002342  80.2255 279.8998 15.06382722 92178
STARLINK-1348           
1 45561U 20025AG  21346.55860954  .00003345  00000+0  23378-3 0  9998
2 45561  53.0584 110.7467 0002103  95.3722 264.7507 15.07920554 93234
STARLINK-1354           
1 45562U 20025AH  21346.85558124  .00000270  00000+0  37037-4 0  9997
2 45562  53.0529 195.1176 0002342  84.8997 275.2259 15.06390722 91472
STARLINK-1355           
1 45563U 20025AJ  21346.80397458  .00000412  00000+0  46602-4 0  9990
2 45563  53.0540 195.3567 0002334  81.9041 278.2213 15.06394908 91463
STARLINK-1356           
1 45564U 20025AK  21346.86663846  .00000272  00000+0  37180-4 0  9999
2 45564  53.0524 195.0614 0002261  78.6146 281.5097 15.06391549 91470
STARLINK-1357           
1 45565U 20025AL  21346.06308199  .00000417  00000+0  46933-4 0  9996
2 45565  53.0532 198.6772 0002121  75.9707 284.1518 15.06401300 91959
STARLINK-1358           
1 45566U 20025AM  21346.80763915  .00001122  00000+0  94235-4 0  9992
2 45566  53.0533 195.3407 0002263  78.6076 281.5167 15.06406761 91469
STARLINK-1361           
1 45567U 20025AN  21346.61966788 -.00001355  00000+0 -72051-4 0  9997
2 45567  53.0524 196.1741 0002322  79.8163 280.3088 15.06393389 92041
STARLINK-1363           
1 45568U 20025AP  21346.81040272  .00000383  00000+0  44665-4 0  9999
2 45568  53.0534 195.3247 0002266  82.8860 277.2386 15.06394530 91460
STARLINK-1366           
1 45569U 20025AQ  21346.55701269  .00000423  00000+0  47325-4 0  9992
2 45569  53.0535 196.4593 0002310  76.9195 283.2052 15.06381751 92024
STARLINK-1376           
1 45570U 20025AR  21346.61598461  .00000336  00000+0  41486-4 0  9994
2 45570  53.0531 196.1930 0002604  75.2332 284.8945 15.06399051 92036
STARLINK-1261           
1 45571U 20025AS  21346.56531612  .00000197  00000+0  32119-4 0  9992
2 45571  53.0538 186.4309 0002164  80.8819 279.2415 15.06386538 92181
STARLINK-1320           
1 45572U 20025AT  21346.82333249  .00000275  00000+0  37396-4 0  9997
2 45572  53.0539 185.2729 0002450  86.4103 273.7166 15.06389988 91602
